CCSDS_OMM_VERS = 2.0
CREATION_DATE  = 
ORIGINATOR     = 

OBJECT_NAME    = STARLINK-36334
OBJECT_ID      = 2026-008AC
CENTER_NAME    = EARTH
REF_FRAME      = TEME
TIME_SYSTEM    = UTC
MEAN_ELEMENT_THEORY = SGP/SGP4

EPOCH          = 2026-02-10T12:00:01.999296
MEAN_MOTION    = 15.40034888
ECCENTRICITY   = .0001621
INCLINATION    = 43.0004
RA_OF_ASC_NODE = 359.3833
ARG_OF_PERICENTER = 279.4716
MEAN_ANOMALY   = 194.9198

EPHEMERIS_TYPE = 0
CLASSIFICATION_TYPE = U
NORAD_CAT_ID   = 67471
ELEMENT_SET_NO = 999
REV_AT_EPOCH   = 542
BSTAR          = -.55533E-1
MEAN_MOTION_DOT = -.2018255E-1
MEAN_MOTION_DDOT = 0

CCSDS_OMM_VERS = 2.0
CREATION_DATE  = 
ORIGINATOR     = 

OBJECT_NAME    = STARLINK-36269
OBJECT_ID      = 2026-008AD
CENTER_NAME    = EARTH
REF_FRAME      = TEME
TIME_SYSTEM    = UTC
MEAN_ELEMENT_THEORY = SGP/SGP4

EPOCH          = 2026-02-10T12:00:01.999296
MEAN_MOTION    = 15.46576091
ECCENTRICITY   = .0001385
INCLINATION    = 43.0002
RA_OF_ASC_NODE = 359.3685
ARG_OF_PERICENTER = 271.8742
MEAN_ANOMALY   = 207.3549

EPHEMERIS_TYPE = 0
CLASSIFICATION_TYPE = U
NORAD_CAT_ID   = 67472
ELEMENT_SET_NO = 999
REV_AT_EPOCH   = 544
BSTAR          = -.45989E-1
MEAN_MOTION_DOT = -.2081298E-1
MEAN_MOTION_DDOT = 0

CCSDS_OMM_VERS = 2.0
CREATION_DATE  = 
ORIGINATOR     = 

OBJECT_NAME    = STARLINK-36408
OBJECT_ID      = 2026-008AE
CENTER_NAME    = EARTH
REF_FRAME      = TEME
TIME_SYSTEM    = UTC
MEAN_ELEMENT_THEORY = SGP/SGP4

EPOCH          = 2026-02-09T23:17:29.397696
MEAN_MOTION    = 15.50655502
ECCENTRICITY   = .00014255
INCLINATION    = 43.0004
RA_OF_ASC_NODE = 2.5667
ARG_OF_PERICENTER = 246.4768
MEAN_ANOMALY   = 113.5943

EPHEMERIS_TYPE = 0
CLASSIFICATION_TYPE = U
NORAD_CAT_ID   = 67473
ELEMENT_SET_NO = 999
REV_AT_EPOCH   = 532
BSTAR          = .190354E-2
MEAN_MOTION_DOT = .113268E-2
MEAN_MOTION_DDOT = 0

CCSDS_OMM_VERS = 2.0
CREATION_DATE  = 
ORIGINATOR     = 

OBJECT_NAME    = ALSAT-3A
OBJECT_ID      = 2026-009A
CENTER_NAME    = EARTH
REF_FRAME      = TEME
TIME_SYSTEM    = UTC
MEAN_ELEMENT_THEORY = SGP/SGP4

EPOCH          = 2026-02-10T11:40:30.861120
MEAN_MOTION    = 15.23475763
ECCENTRICITY   = .0012612
INCLINATION    = 97.4676
RA_OF_ASC_NODE = 116.1369
ARG_OF_PERICENTER = 163.9602
MEAN_ANOMALY   = 196.2037

EPHEMERIS_TYPE = 0
CLASSIFICATION_TYPE = U
NORAD_CAT_ID   = 67474
ELEMENT_SET_NO = 999
REV_AT_EPOCH   = 398
BSTAR          = .30807E-3
MEAN_MOTION_DOT = .7292E-4
MEAN_MOTION_DDOT = 0

CCSDS_OMM_VERS = 2.0
CREATION_DATE  = 
ORIGINATOR     = 

OBJECT_NAME    = CZ-2C R/B
OBJECT_ID      = 2026-009B
CENTER_NAME    = EARTH
REF_FRAME      = TEME
TIME_SYSTEM    = UTC
MEAN_ELEMENT_THEORY = SGP/SGP4

EPOCH          = 2026-02-10T04:13:54.549984
MEAN_MOTION    = 15.03138097
ECCENTRICITY   = .01004217
INCLINATION    = 97.1747
RA_OF_ASC_NODE = 113.7482
ARG_OF_PERICENTER = 133.3711
MEAN_ANOMALY   = 227.5937

EPHEMERIS_TYPE = 0
CLASSIFICATION_TYPE = U
NORAD_CAT_ID   = 67475
ELEMENT_SET_NO = 999
REV_AT_EPOCH   = 394
BSTAR          = .21509865E-3
MEAN_MOTION_DOT = .3183E-4
MEAN_MOTION_DDOT = 0

CCSDS_OMM_VERS = 2.0
CREATION_DATE  = 
ORIGINATOR     = 

OBJECT_NAME    = TIANQI-37
OBJECT_ID      = 2026-010A
CENTER_NAME    = EARTH
REF_FRAME      = TEME
TIME_SYSTEM    = UTC
MEAN_ELEMENT_THEORY = SGP/SGP4

EPOCH          = 2026-02-08T06:39:39.190752
MEAN_MOTION    = 14.13528441
ECCENTRICITY   = .0012909
INCLINATION    = 44.9825
RA_OF_ASC_NODE = 296.6529
ARG_OF_PERICENTER = 70.2546
MEAN_ANOMALY   = 289.9683

EPHEMERIS_TYPE = 0
CLASSIFICATION_TYPE = U
NORAD_CAT_ID   = 67476
ELEMENT_SET_NO = 999
REV_AT_EPOCH   = 332
BSTAR          = .15719E-3
MEAN_MOTION_DOT = .165E-5
MEAN_MOTION_DDOT = 0

CCSDS_OMM_VERS = 2.0
CREATION_DATE  = 
ORIGINATOR     = 

OBJECT_NAME    = TIANQI-38
OBJECT_ID      = 2026-010B
CENTER_NAME    = EARTH
REF_FRAME      = TEME
TIME_SYSTEM    = UTC
MEAN_ELEMENT_THEORY = SGP/SGP4

EPOCH          = 2026-02-08T06:33:16.657344
MEAN_MOTION    = 14.13905796
ECCENTRICITY   = .0011754
INCLINATION    = 44.9788
RA_OF_ASC_NODE = 296.6199
ARG_OF_PERICENTER = 75.6443
MEAN_ANOMALY   = 284.5700

EPHEMERIS_TYPE = 0
CLASSIFICATION_TYPE = U
NORAD_CAT_ID   = 67477
ELEMENT_SET_NO = 999
REV_AT_EPOCH   = 332
BSTAR          = .17865E-3
MEAN_MOTION_DOT = .208E-5
MEAN_MOTION_DDOT = 0

CCSDS_OMM_VERS = 2.0
CREATION_DATE  = 
ORIGINATOR     = 

OBJECT_NAME    = TIANQI-39
OBJECT_ID      = 2026-010C
CENTER_NAME    = EARTH
REF_FRAME      = TEME
TIME_SYSTEM    = UTC
MEAN_ELEMENT_THEORY = SGP/SGP4

EPOCH          = 2026-02-08T06:41:10.923360
MEAN_MOTION    = 14.13055169
ECCENTRICITY   = .0016488
INCLINATION    = 44.9839
RA_OF_ASC_NODE = 296.6613
ARG_OF_PERICENTER = 82.3005
MEAN_ANOMALY   = 277.9705

EPHEMERIS_TYPE = 0
CLASSIFICATION_TYPE = U
NORAD_CAT_ID   = 67478
ELEMENT_SET_NO = 999
REV_AT_EPOCH   = 332
BSTAR          = .15988E-3
MEAN_MOTION_DOT = .167E-5
MEAN_MOTION_DDOT = 0

CCSDS_OMM_VERS = 2.0
CREATION_DATE  = 
ORIGINATOR     = 

OBJECT_NAME    = TIANQI-40
OBJECT_ID      = 2026-010D
CENTER_NAME    = EARTH
REF_FRAME      = TEME
TIME_SYSTEM    = UTC
MEAN_ELEMENT_THEORY = SGP/SGP4

EPOCH          = 2026-02-09T04:36:40.071744
MEAN_MOTION    = 14.13182235
ECCENTRICITY   = .0011741
INCLINATION    = 44.9786
RA_OF_ASC_NODE = 292.4342
ARG_OF_PERICENTER = 80.4003
MEAN_ANOMALY   = 279.8161

EPHEMERIS_TYPE = 0
CLASSIFICATION_TYPE = U
NORAD_CAT_ID   = 67479
ELEMENT_SET_NO = 999
REV_AT_EPOCH   = 345
BSTAR          = .15351E-3
MEAN_MOTION_DOT = .156E-5
MEAN_MOTION_DDOT = 0

CCSDS_OMM_VERS = 2.0
CREATION_DATE  = 
ORIGINATOR     = 

OBJECT_NAME    = SZ-20 MODULE
OBJECT_ID      = 2025-082C
CENTER_NAME    = EARTH
REF_FRAME      = TEME
TIME_SYSTEM    = UTC
MEAN_ELEMENT_THEORY = SGP/SGP4

EPOCH          = 2026-02-09T23:15:46.373472
MEAN_MOTION    = 15.62594222
ECCENTRICITY   = .00069624
INCLINATION    = 41.4800
RA_OF_ASC_NODE = 16.3066
ARG_OF_PERICENTER = 145.5631
MEAN_ANOMALY   = 214.5661

EPHEMERIS_TYPE = 0
CLASSIFICATION_TYPE = U
NORAD_CAT_ID   = 67481
ELEMENT_SET_NO = 999
REV_AT_EPOCH   = 27328
BSTAR          = .2704971E-3
MEAN_MOTION_DOT = .24628E-3
MEAN_MOTION_DDOT = 0

CCSDS_OMM_VERS = 2.0
CREATION_DATE  = 
ORIGINATOR     = 

OBJECT_NAME    = 2025-313BE
OBJECT_ID      = 2025-313BE
CENTER_NAME    = EARTH
REF_FRAME      = TEME
TIME_SYSTEM    = UTC
MEAN_ELEMENT_THEORY = SGP/SGP4

EPOCH          = 2026-02-09T23:41:50.038944
MEAN_MOTION    = 15.25562216
ECCENTRICITY   = .00087549
INCLINATION    = 97.4058
RA_OF_ASC_NODE = 117.8480
ARG_OF_PERICENTER = 85.7854
MEAN_ANOMALY   = 274.4385

EPHEMERIS_TYPE = 0
CLASSIFICATION_TYPE = U
NORAD_CAT_ID   = 67482
ELEMENT_SET_NO = 999
REV_AT_EPOCH   = 374
BSTAR          = .24995395E-2
MEAN_MOTION_DOT = .63906E-3
MEAN_MOTION_DDOT = 0

CCSDS_OMM_VERS = 2.0
CREATION_DATE  = 
ORIGINATOR     = 

OBJECT_NAME    = ION SCV-021
OBJECT_ID      = 2025-276DT
CENTER_NAME    = EARTH
REF_FRAME      = TEME
TIME_SYSTEM    = UTC
MEAN_ELEMENT_THEORY = SGP/SGP4

EPOCH          = 2026-02-03T04:28:31.154016
MEAN_MOTION    = 14.97059561
ECCENTRICITY   = .00113647
INCLINATION    = 97.5347
RA_OF_ASC_NODE = 109.4970
ARG_OF_PERICENTER = 207.9438
MEAN_ANOMALY   = 152.1175

EPHEMERIS_TYPE = 0
CLASSIFICATION_TYPE = U
NORAD_CAT_ID   = 67483
ELEMENT_SET_NO = 999
REV_AT_EPOCH   = 255
BSTAR          = -.1218394E-1
MEAN_MOTION_DOT = -.13788E-2
MEAN_MOTION_DDOT = 0

